start=new Date('2023-05-05T00:00:00.000Z').valueOf();
sats=[{"MEAN_ANOMALY":"271.6953","DECAY_DATE":null,"MEAN_MOTION_DOT":"0.00000267","SEMIMAJOR_AXIS":"6925.376","BSTAR":"0.00003680700000","REF_FRAME":"TEME","NORAD_CAT_ID":"48589","MEAN_MOTION":"15.06391141","CLASSIFICATION_TYPE":"U","SITE":"AFETR","FILE":"3900892","RCS_SIZE":"LARGE","OBJECT_NAME":"STARLINK-2245","PERIOD":"95.593","ELEMENT_SET_NO":"999","EPHEMERIS_TYPE":"0","TLE_LINE2":"2 48589  53.0533 121.6594 0001368  88.4192 271.6953 15.06391141108400","APOAPSIS":"548.188","MEAN_ELEMENT_THEORY":"SGP4","ARG_OF_PERICENTER":"88.4192","CENTER_NAME":"EARTH","OBJECT_ID":"2021-041AN","LAUNCH_DATE":"2021-05-15","COUNTRY_CODE":"US","OBJECT_TYPE":"PAYLOAD","RA_OF_ASC_NODE":"121.6594","MEAN_MOTION_DDOT":"0.0000000000000","REV_AT_EPOCH":"10840","TIME_SYSTEM":"UTC","PERIAPSIS":"546.293","EPOCH":"2023-05-04T09:35:37.535136","TLE_LINE1":"1 48589U 21041AN  23124.39973999  .00000267  00000-0  36807-4 0  9995","INCLINATION":"53.0533","ECCENTRICITY":"0.00013680","GP_ID":"231238706"},{"PERIAPSIS":"546.020","EPOCH":"2023-05-04T09:13:01.538112","TIME_SYSTEM":"UTC","REV_AT_EPOCH":"10930","GP_ID":"231237462","INCLINATION":"53.0527","TLE_LINE1":"1 48591U 21041AQ  23124.38404558  .00000729  00000-0  67822-4 0  9991","ECCENTRICITY":"0.00017310","RA_OF_ASC_NODE":"121.7277","OBJECT_TYPE":"PAYLOAD","MEAN_MOTION_DDOT":"0.0000000000000","COUNTRY_CODE":"US","OBJECT_ID":"2021-041AQ","CENTER_NAME":"EARTH","LAUNCH_DATE":"2021-05-15","ARG_OF_PERICENTER":"90.9191","MEAN_ELEMENT_THEORY":"SGP4","APOAPSIS":"548.418","TLE_LINE2":"2 48591  53.0527 121.7277 0001731  90.9191 269.1996 15.06398306109305","PERIOD":"95.592","OBJECT_NAME":"STARLINK-2248","EPHEMERIS_TYPE":"0","ELEMENT_SET_NO":"999","FILE":"3900892","RCS_SIZE":"LARGE","SITE":"AFETR","CLASSIFICATION_TYPE":"U","REF_FRAME":"TEME","BSTAR":"0.00006782200000","MEAN_MOTION":"15.06398306","NORAD_CAT_ID":"48591","MEAN_MOTION_DOT":"0.00000729","SEMIMAJOR_AXIS":"6925.354","DECAY_DATE":null,"MEAN_ANOMALY":"269.1996"},{"CLASSIFICATION_TYPE":"U","SITE":"AFETR","RCS_SIZE":"MEDIUM","FILE":"3900892","EPHEMERIS_TYPE":"0","ELEMENT_SET_NO":"999","PERIOD":"95.593","OBJECT_NAME":"STARLINK-2249","DECAY_DATE":null,"MEAN_ANOMALY":"271.2855","SEMIMAJOR_AXIS":"6925.378","MEAN_MOTION_DOT":"0.00000983","MEAN_MOTION":"15.06390259","NORAD_CAT_ID":"48592","REF_FRAME":"TEME","BSTAR":"0.00008488600000","LAUNCH_DATE":"2021-05-15","OBJECT_ID":"2021-041AR","CENTER_NAME":"EARTH","COUNTRY_CODE":"US","MEAN_MOTION_DDOT":"0.0000000000000","RA_OF_ASC_NODE":"131.7095","OBJECT_TYPE":"PAYLOAD","GP_ID":"231237710","INCLINATION":"53.0527","TLE_LINE1":"1 48592U 21041AR  23124.39418314  .00000983  00000-0  84886-4 0  9999","ECCENTRICITY":"0.00013850","PERIAPSIS":"546.284","EPOCH":"2023-05-04T09:27:37.423296","TIME_SYSTEM":"UTC","REV_AT_EPOCH":"10826","TLE_LINE2":"2 48592  53.0527 131.7095 0001385  88.8292 271.2855 15.06390259108269","APOAPSIS":"548.203","MEAN_ELEMENT_THEORY":"SGP4","ARG_OF_PERICENTER":"88.8292"},{"MEAN_ELEMENT_THEORY":"SGP4","ARG_OF_PERICENTER":"108.6698","TLE_LINE2":"2 48593  53.0532 131.6596 0001577 108.6698 251.4463 15.06398973108261","APOAPSIS":"548.309","RA_OF_ASC_NODE":"131.6596","OBJECT_TYPE":"PAYLOAD","MEAN_MOTION_DDOT":"0.0000000000000","EPOCH":"2023-05-04T09:34:16.869504","PERIAPSIS":"546.125","REV_AT_EPOCH":"10826","TIME_SYSTEM":"UTC","GP_ID":"231238463","TLE_LINE1":"1 48593U 21041AS  23124.39880636 -.00001262  00000-0 -65846-4 0  9998","ECCENTRICITY":"0.00015770","INCLINATION":"53.0532","OBJECT_ID":"2021-041AS","CENTER_NAME":"EARTH","LAUNCH_DATE":"2021-05-15","COUNTRY_CODE":"US","REF_FRAME":"TEME","BSTAR":"-0.00006584600000","MEAN_MOTION":"15.06398973","NORAD_CAT_ID":"48593","DECAY_DATE":null,"MEAN_ANOMALY":"251.4463","MEAN_MOTION_DOT":"-0.00001262","SEMIMAJOR_AXIS":"6925.352","FILE":"3900892","RCS_SIZE":"LARGE","PERIOD":"95.592","OBJECT_NAME":"STARLINK-2250","EPHEMERIS_TYPE":"0","ELEMENT_SET_NO":"999","SITE":"AFETR","CLASSIFICATION_TYPE":"U"},{"SEMIMAJOR_AXIS":"6925.362","MEAN_MOTION_DOT":"-0.00000138","DECAY_DATE":null,"MEAN_ANOMALY":"263.6069","MEAN_MOTION":"15.06395699","NORAD_CAT_ID":"48594","REF_FRAME":"TEME","BSTAR":"0.00000961660000","CLASSIFICATION_TYPE":"U","SITE":"AFETR","EPHEMERIS_TYPE":"0","ELEMENT_SET_NO":"999","PERIOD":"95.592","OBJECT_NAME":"STARLINK-2251","RCS_SIZE":"LARGE","FILE":"3900892","APOAPSIS":"548.103","TLE_LINE2":"2 48594  53.0529 102.2154 0001266  96.5064 263.6069 15.06395699108673","ARG_OF_PERICENTER":"96.5064","MEAN_ELEMENT_THEORY":"SGP4","COUNTRY_CODE":"US","LAUNCH_DATE":"2021-05-15","OBJECT_ID":"2021-041AT","CENTER_NAME":"EARTH","GP_ID":"231238206","TLE_LINE1":"1 48594U 21041AT  23124.29468902 -.00000138  00000-0  96166-5 0  9996","ECCENTRICITY":"0.00012660","INCLINATION":"53.0529","EPOCH":"2023-05-04T07:04:21.131328","PERIAPSIS":"546.350","TIME_SYSTEM":"UTC","REV_AT_EPOCH":"10867","MEAN_MOTION_DDOT":"0.0000000000000","RA_OF_ASC_NODE":"102.2154","OBJECT_TYPE":"PAYLOAD"},{"NORAD_CAT_ID":"48595","MEAN_MOTION":"15.06394507","BSTAR":"0.00002818000000","REF_FRAME":"TEME","SEMIMAJOR_AXIS":"6925.365","MEAN_MOTION_DOT":"0.00000138","MEAN_ANOMALY":"265.1710","DECAY_DATE":null,"ELEMENT_SET_NO":"999","EPHEMERIS_TYPE":"0","OBJECT_NAME":"STARLINK-2252","PERIOD":"95.592","RCS_SIZE":"LARGE","FILE":"3900892","SITE":"AFETR","CLASSIFICATION_TYPE":"U","ARG_OF_PERICENTER":"94.9436","MEAN_ELEMENT_THEORY":"SGP4","APOAPSIS":"548.185","TLE_LINE2":"2 48595  53.0531 131.4460 0001379  94.9436 265.1710 15.06394507109545","INCLINATION":"53.0531","TLE_LINE1":"1 48595U 21041AU  23124.44672877  .00000138  00000-0  28180-4 0  9991","ECCENTRICITY":"0.00013790","GP_ID":"231236962","REV_AT_EPOCH":"10954","TIME_SYSTEM":"UTC","EPOCH":"2023-05-04T10:43:17.365728","PERIAPSIS":"546.275","MEAN_MOTION_DDOT":"0.0000000000000","OBJECT_TYPE":"PAYLOAD","RA_OF_ASC_NODE":"131.4460","COUNTRY_CODE":"US","LAUNCH_DATE":"2021-05-15","CENTER_NAME":"EARTH","OBJECT_ID":"2021-041AU"},{"MEAN_MOTION_DDOT":"0.0000000000000","RA_OF_ASC_NODE":"131.6469","OBJECT_TYPE":"PAYLOAD","GP_ID":"231237210","TLE_LINE1":"1 48596U 21041AV  23124.40249482 -.00001074  00000-0 -53202-4 0  9995","ECCENTRICITY":"0.00013680","INCLINATION":"53.0520","EPOCH":"2023-05-04T09:39:35.552448","PERIAPSIS":"546.278","REV_AT_EPOCH":"10872","TIME_SYSTEM":"UTC","LAUNCH_DATE":"2021-05-15","OBJECT_ID":"2021-041AV","CENTER_NAME":"EARTH","COUNTRY_CODE":"US","MEAN_ELEMENT_THEORY":"SGP4","ARG_OF_PERICENTER":"90.8235","TLE_LINE2":"2 48596  53.0520 131.6469 0001368  90.8235 269.2910 15.06396217108721","APOAPSIS":"548.173","RCS_SIZE":"LARGE","FILE":"3900892","EPHEMERIS_TYPE":"0","ELEMENT_SET_NO":"999","PERIOD":"95.592","OBJECT_NAME":"STARLINK-2253","SITE":"AFETR","CLASSIFICATION_TYPE":"U","MEAN_MOTION":"15.06396217","NORAD_CAT_ID":"48596","REF_FRAME":"TEME","BSTAR":"-0.00005320200000","DECAY_DATE":null,"MEAN_ANOMALY":"269.2910","SEMIMAJOR_AXIS":"6925.360","MEAN_MOTION_DOT":"-0.00001074"},{"DECAY_DATE":null,"MEAN_ANOMALY":"276.3247","SEMIMAJOR_AXIS":"6925.353","MEAN_MOTION_DOT":"0.00000616","MEAN_MOTION":"15.06398642","NORAD_CAT_ID":"48597","REF_FRAME":"TEME","BSTAR":"0.00006025200000","CLASSIFICATION_TYPE":"U","SITE":"AFETR","RCS_SIZE":"LARGE","FILE":"3900892","EPHEMERIS_TYPE":"0","ELEMENT_SET_NO":"999","PERIOD":"95.592","OBJECT_NAME":"STARLINK-2255","TLE_LINE2":"2 48597  53.0546 132.2138 0001433  83.7905 276.3247 15.06398642109512","APOAPSIS":"548.210","MEAN_ELEMENT_THEORY":"SGP4","ARG_OF_PERICENTER":"83.7905","LAUNCH_DATE":"2021-05-15","OBJECT_ID":"2021-041AW","CENTER_NAME":"EARTH","COUNTRY_CODE":"US","MEAN_MOTION_DDOT":"0.0000000000000","RA_OF_ASC_NODE":"132.2138","OBJECT_TYPE":"PAYLOAD","GP_ID":"231237963","TLE_LINE1":"1 48597U 21041AW  23124.27717757  .00000616  00000-0  60252-4 0  9998","ECCENTRICITY":"0.00014330","INCLINATION":"53.0546","PERIAPSIS":"546.225","EPOCH":"2023-05-04T06:39:08.142048","REV_AT_EPOCH":"10951","TIME_SYSTEM":"UTC"},{"EPHEMERIS_TYPE":"0","ELEMENT_SET_NO":"999","PERIOD":"95.592","OBJECT_NAME":"STARLINK-2256","RCS_SIZE":"LARGE","FILE":"3900892","CLASSIFICATION_TYPE":"U","SITE":"AFETR","MEAN_MOTION":"15.06397942","NORAD_CAT_ID":"48598","REF_FRAME":"TEME","BSTAR":"0.00002908300000","SEMIMAJOR_AXIS":"6925.355","MEAN_MOTION_DOT":"0.00000152","DECAY_DATE":null,"MEAN_ANOMALY":"272.4075","GP_ID":"231238707","ECCENTRICITY":"0.00014160","TLE_LINE1":"1 48598U 21041AX  23124.41355526  .00000152  00000-0  29083-4 0  9999","INCLINATION":"53.0526","EPOCH":"2023-05-04T09:55:31.174464","PERIAPSIS":"546.239","REV_AT_EPOCH":"10872","TIME_SYSTEM":"UTC","MEAN_MOTION_DDOT":"0.0000000000000","RA_OF_ASC_NODE":"131.5971","OBJECT_TYPE":"PAYLOAD","COUNTRY_CODE":"US","LAUNCH_DATE":"2021-05-15","OBJECT_ID":"2021-041AX","CENTER_NAME":"EARTH","ARG_OF_PERICENTER":"87.7076","MEAN_ELEMENT_THEORY":"SGP4","APOAPSIS":"548.200","TLE_LINE2":"2 48598  53.0526 131.5971 0001416  87.7076 272.4075 15.06397942108722"},{"APOAPSIS":"548.010","TLE_LINE2":"2 48599  53.0531 104.0947 0001198  94.3471 265.7655 15.06410920109976","ARG_OF_PERICENTER":"94.3471","MEAN_ELEMENT_THEORY":"SGP4","COUNTRY_CODE":"US","CENTER_NAME":"EARTH","OBJECT_ID":"2021-041AY","LAUNCH_DATE":"2021-05-15","REV_AT_EPOCH":"10997","TIME_SYSTEM":"UTC","EPOCH":"2023-05-04T23:17:38.848128","PERIAPSIS":"546.350","INCLINATION":"53.0531","TLE_LINE1":"1 48599U 21041AY  23124.97058852  .00005227  00000-0  36942-3 0  9992","ECCENTRICITY":"0.00011980","GP_ID":"231247940","OBJECT_TYPE":"PAYLOAD","RA_OF_ASC_NODE":"104.0947","MEAN_MOTION_DDOT":"0.0000000000000","MEAN_MOTION_DOT":"0.00005227","SEMIMAJOR_AXIS":"6925.315","MEAN_ANOMALY":"265.7655","DECAY_DATE":null,"BSTAR":"0.00036942000000","REF_FRAME":"TEME","NORAD_CAT_ID":"48599","MEAN_MOTION":"15.06410920","SITE":"AFETR","CLASSIFICATION_TYPE":"U","OBJECT_NAME":"STARLINK-2274","PERIOD":"95.591","ELEMENT_SET_NO":"999","EPHEMERIS_TYPE":"0","FILE":"3901116","RCS_SIZE":"LARGE"}];
